<?xml version="1.0" encoding="UTF-8" standalone="no" ?>
<gpx xmlns="http://www.topografix.com/GPX/1/1" xmlns:gpxx="http://www.garmin.com/xmlschemas/GpxExtensions/v3" xmlns:gpxtpx="http://www.garmin.com/xmlschemas/TrackPointExtension/v1" creator="Google Maps Extended Routes v1.7.0" version="1.1" xmlns:xsi="http://www.w3.org/2001/XMLSchema-instance" xsi:schemaLocation="http://www.topografix.com/GPX/1/1 http://www.topografix.com/GPX/1/1/gpx.xsd http://www.garmin.com/xmlschemas/GpxExtensions/v3 http://www.garmin.com/xmlschemas/GpxExtensionsv3.xsd http://www.garmin.com/xmlschemas/TrackPointExtension/v1 http://www.garmin.com/xmlschemas/TrackPointExtensionv1.xsd"><metadata><link href="https://gmaps-extended-routes.pages.dev/"><text>Google Maps Extended Routes</text></link><!--desc>Map data ©2026 Google</desc--><!--copyright author="Google Inc"><year>2026</year><license>https://developers.google.com/maps/terms</license></copyright--><!--url>https://www.google.hu/maps/dir/PENNY+Tiszak%C3%A9cske,+Tiszak%C3%A9cske,+Szolnoki+%C3%BAt+44,+6060/SPAR+szupermarket,+Tiszak%C3%A9cske,+V%C3%ADzh%C3%A1ny%C3%B3+J%C3%A1nos+u.+2%2Fa,+6060/Hechinger+Hungary+Kft.,+Tiszak%C3%A9cske,+Kossuth+Lajos+u.+77,+6060/G%C3%B3lya+u.+1,+Tiszak%C3%A9cske,+6060/@46.9358699,20.0991781,15z/data=!3m1!4b1!4m26!4m25!1m5!1m1!1s0x474184a121117c7b:0x7d20ddbd11e9d609!2m2!1d20.0973889!2d46.9429397!1m5!1m1!1s0x47415885bb28a383:0xdacca55d8ecf81b5!2m2!1d20.096038!2d46.936816!1m5!1m1!1s0x47415daac4b91b57:0x564dad279c914fd3!2m2!1d20.1062324!2d46.9290505!1m5!1m1!1s0x4741586f473ebc59:0xca3c2082253802b5!2m2!1d20.1238849!2d46.9378667!3e0?entry=ttu&g_ep=EgoyMDI2MDUyMC4wIKXMDSoASAFQAw%3D%3D</url--><time>2026-05-24T11:30:09Z</time></metadata><wpt lat="46.9429397" lon="20.0973889"><name>PENNY Tiszakécske</name><desc>Tiszakécske, Szolnoki út 44, 6060</desc></wpt><wpt lat="46.936816" lon="20.096038"><name>SPAR szupermarket</name><desc>Tiszakécske, Vízhányó János u. 2/a, 6060</desc></wpt><wpt lat="46.929050499999995" lon="20.1062324"><name>Hechinger Hungary Kft.</name><desc>Tiszakécske, Kossuth Lajos u. 77, 6060</desc></wpt><wpt lat="46.9378667" lon="20.1238849"><name>Gólya u. 1</name><desc>Tiszakécske, 6060</desc></wpt><trk><number>1</number><trkseg><trkpt lat="46.9427909" lon="20.097561"><name>TP001</name></trkpt><trkpt lat="46.9422685" lon="20.0975292"><name>TP002</name></trkpt><trkpt lat="46.93911" lon="20.097243"><name>TP003</name></trkpt><trkpt lat="46.938938" lon="20.0972109"><name>TP004</name></trkpt><trkpt lat="46.9379408" lon="20.0968065"><name>TP005</name></trkpt><trkpt lat="46.9375656" lon="20.0967124"><name>TP006</name></trkpt><trkpt lat="46.937412" lon="20.0967075"><name>TP007</name></trkpt><trkpt lat="46.9358849" lon="20.0962037"><name>TP008</name></trkpt><trkpt lat="46.9361719" lon="20.0956441"><name>TP009</name></trkpt><trkpt lat="46.9363203" lon="20.0953874"><name>TP010</name></trkpt><trkpt lat="46.9364698" lon="20.0955427"><name>TP011</name></trkpt><trkpt lat="46.9366587" lon="20.0956764"><name>TP012</name></trkpt><trkpt lat="46.9365995" lon="20.0959291"><name>TP013</name></trkpt><trkpt lat="46.9366587" lon="20.0956764"><name>TP014</name></trkpt><trkpt lat="46.9364698" lon="20.0955427"><name>TP015</name></trkpt><trkpt lat="46.9363203" lon="20.0953874"><name>TP016</name></trkpt><trkpt lat="46.9361719" lon="20.0956441"><name>TP017</name></trkpt><trkpt lat="46.9358849" lon="20.0962037"><name>TP018</name></trkpt><trkpt lat="46.9345316" lon="20.0958838"><name>TP019</name></trkpt><trkpt lat="46.9338688" lon="20.0956635"><name>TP020</name></trkpt><trkpt lat="46.9331559" lon="20.09547"><name>TP021</name></trkpt><trkpt lat="46.9331134" lon="20.0954537"><name>TP022</name></trkpt><trkpt lat="46.9331166" lon="20.0953652"><name>TP023</name></trkpt><trkpt lat="46.9330912" lon="20.095285"><name>TP024</name></trkpt><trkpt lat="46.9330155" lon="20.0952204"><name>TP025</name></trkpt><trkpt lat="46.9329252" lon="20.0952499"><name>TP026</name></trkpt><trkpt lat="46.9328735" lon="20.0953629"><name>TP027</name></trkpt><trkpt lat="46.9320676" lon="20.0954519"><name>TP028</name></trkpt><trkpt lat="46.9316232" lon="20.0953431"><name>TP029</name></trkpt><trkpt lat="46.9314176" lon="20.0952559"><name>TP030</name></trkpt><trkpt lat="46.9313423" lon="20.0951956"><name>TP031</name></trkpt><trkpt lat="46.93125" lon="20.0950707"><name>TP032</name></trkpt><trkpt lat="46.9311075" lon="20.0953126"><name>TP033</name></trkpt><trkpt lat="46.9307868" lon="20.0962429"><name>TP034</name></trkpt><trkpt lat="46.9305803" lon="20.0967357"><name>TP035</name></trkpt><trkpt lat="46.9302972" lon="20.0976562"><name>TP036</name></trkpt><trkpt lat="46.930118" lon="20.0985578"><name>TP037</name></trkpt><trkpt lat="46.9300006" lon="20.0996073"><name>TP038</name></trkpt><trkpt lat="46.9298986" lon="20.1010911"><name>TP039</name></trkpt><trkpt lat="46.9299012" lon="20.1017473"><name>TP040</name></trkpt><trkpt lat="46.9298843" lon="20.1020392"><name>TP041</name></trkpt><trkpt lat="46.9298485" lon="20.1024641"><name>TP042</name></trkpt><trkpt lat="46.9297377" lon="20.1033839"><name>TP043</name></trkpt><trkpt lat="46.9295931" lon="20.1042737"><name>TP044</name></trkpt><trkpt lat="46.9291181" lon="20.1066302"><name>TP045</name></trkpt><trkpt lat="46.9289323" lon="20.1065715"><name>TP046</name></trkpt><trkpt lat="46.9291181" lon="20.1066302"><name>TP047</name></trkpt><trkpt lat="46.9288715" lon="20.1078324"><name>TP048</name></trkpt><trkpt lat="46.928789" lon="20.1083583"><name>TP049</name></trkpt><trkpt lat="46.9287158" lon="20.1086242"><name>TP050</name></trkpt><trkpt lat="46.9296534" lon="20.1090946"><name>TP051</name></trkpt><trkpt lat="46.9298455" lon="20.1092958"><name>TP052</name></trkpt><trkpt lat="46.9298835" lon="20.1093646"><name>TP053</name></trkpt><trkpt lat="46.9299081" lon="20.1094665"><name>TP054</name></trkpt><trkpt lat="46.9304659" lon="20.1101516"><name>TP055</name></trkpt><trkpt lat="46.9307127" lon="20.1105175"><name>TP056</name></trkpt><trkpt lat="46.9307297" lon="20.1105739"><name>TP057</name></trkpt><trkpt lat="46.9307242" lon="20.1106719"><name>TP058</name></trkpt><trkpt lat="46.9304602" lon="20.1118302"><name>TP059</name></trkpt><trkpt lat="46.9304349" lon="20.1119563"><name>TP060</name></trkpt><trkpt lat="46.9304269" lon="20.1121536"><name>TP061</name></trkpt><trkpt lat="46.9304718" lon="20.112361"><name>TP062</name></trkpt><trkpt lat="46.9306474" lon="20.1129762"><name>TP063</name></trkpt><trkpt lat="46.9307482" lon="20.1135193"><name>TP064</name></trkpt><trkpt lat="46.9309821" lon="20.1141835"><name>TP065</name></trkpt><trkpt lat="46.931174" lon="20.1148005"><name>TP066</name></trkpt><trkpt lat="46.9312901" lon="20.1150372"><name>TP067</name></trkpt><trkpt lat="46.9322657" lon="20.1163147"><name>TP068</name></trkpt><trkpt lat="46.9325001" lon="20.1165481"><name>TP069</name></trkpt><trkpt lat="46.9326206" lon="20.1166393"><name>TP070</name></trkpt><trkpt lat="46.9328995" lon="20.1168227"><name>TP071</name></trkpt><trkpt lat="46.9331028" lon="20.116928"><name>TP072</name></trkpt><trkpt lat="46.9332141" lon="20.1169672"><name>TP073</name></trkpt><trkpt lat="46.9333516" lon="20.1169816"><name>TP074</name></trkpt><trkpt lat="46.9335271" lon="20.1169674"><name>TP075</name></trkpt><trkpt lat="46.9338319" lon="20.1168924"><name>TP076</name></trkpt><trkpt lat="46.9339099" lon="20.1169864"><name>TP077</name></trkpt><trkpt lat="46.9342233" lon="20.1172091"><name>TP078</name></trkpt><trkpt lat="46.93458" lon="20.1175681"><name>TP079</name></trkpt><trkpt lat="46.935028" lon="20.1181111"><name>TP080</name></trkpt><trkpt lat="46.9354882" lon="20.1186278"><name>TP081</name></trkpt><trkpt lat="46.9357378" lon="20.1188421"><name>TP082</name></trkpt><trkpt lat="46.9358617" lon="20.1189117"><name>TP083</name></trkpt><trkpt lat="46.936241" lon="20.1190321"><name>TP084</name></trkpt><trkpt lat="46.9364782" lon="20.1191681"><name>TP085</name></trkpt><trkpt lat="46.9370344" lon="20.1195689"><name>TP086</name></trkpt><trkpt lat="46.9375881" lon="20.1200118"><name>TP087</name></trkpt><trkpt lat="46.938053" lon="20.1203549"><name>TP088</name></trkpt><trkpt lat="46.9380592" lon="20.1209125"><name>TP089</name></trkpt><trkpt lat="46.938034" lon="20.1217498"><name>TP090</name></trkpt><trkpt lat="46.9380268" lon="20.1236744"><name>TP091</name></trkpt><trkpt lat="46.937826" lon="20.1236666"><name>TP092</name></trkpt></trkseg></trk></gpx>